UNKNOWN                 
1 81614U          26078.92041658  .00004457  00000+0  27790-1 0  9993
2 81614 101.8545  76.8604 0352919 328.2864  29.7368 12.38297478550005
UNKNOWN                 
1 81615U          26080.59973387  .00001974  00000+0  73199-3 0  9990
2 81615  65.8290 191.6912 0766018  90.2836 278.5926 13.34523533596054
UNKNOWN                 
1 81617U          26079.32095336  .00000312  00000+0  21060-2 0  9994
2 81617 101.2695 254.5527 0031285  49.0477 311.3300 12.57614430565379
UNKNOWN                 
1 81624U          26057.07858416  .00004588  00000+0  72056-3 0  9997
2 81624  66.9770 318.5702 0063505 176.9023 183.2505 14.72174479650798
UNKNOWN                 
1 81640U          26080.57305209  .00000231  00000+0  26371-3 0  9993
2 81640  65.8238 289.8805 0979997  37.3018 329.2097 12.57313878522506
UNKNOWN                 
1 81652U          26078.70701488  .00000581  00000+0  73687-3 0  9997
2 81652 102.1441 352.3088 0363855 142.7406 251.3047 13.44514908591680
UNKNOWN                 
1 81667U          26080.09035850  .00002236  00000+0  60066-3 0  9997
2 81667  74.0414 212.4181 0014160 121.8027 238.4514 14.48608738470885
UNKNOWN                 
1 81674U          26080.52862466  .00000938  00000+0  57316-3 0  9995
2 81674  66.8210 115.4607 0022419 167.4468 349.0545 14.10182679627643
UNKNOWN                 
1 81683U          26080.03766821  .00003449  00000+0  74283-3 0  9991
2 81683  81.2181 191.6482 0022262 357.4868   2.6214 14.58157548650188
UNKNOWN                 
1 81693U          26077.58455350  .00001492  00000+0  10849-1 0  9992
2 81693 101.1032 133.5446 0378927 260.3042  95.5030 12.26090685979518
UNKNOWN                 
1 81745U          26080.52263429  .00002629  00000+0  83413-3 0  9994
2 81745  71.0000 171.2022 0003092  37.9351 322.2002 14.40922574643970
UNKNOWN                 
1 81775U          26078.62722169  .00004063  00000+0  12237-2 0  9995
2 81775  82.9195 143.9039 0012941 299.9771  60.0138 14.42347016639237
