CCSDS_OMM_VERS = 2.0
CREATION_DATE  = 
ORIGINATOR     = 

OBJECT_NAME    = UNKNOWN
OBJECT_ID      = 
CENTER_NAME    = EARTH
REF_FRAME      = TEME
TIME_SYSTEM    = UTC
MEAN_ELEMENT_THEORY = SGP/SGP4

EPOCH          = 2026-03-19T22:05:23.992512
MEAN_MOTION    = 12.38297478
ECCENTRICITY   = .0352919
INCLINATION    = 101.8545
RA_OF_ASC_NODE = 76.8604
ARG_OF_PERICENTER = 328.2864
MEAN_ANOMALY   = 29.7368

EPHEMERIS_TYPE = 0
CLASSIFICATION_TYPE = U
NORAD_CAT_ID   = 81614
ELEMENT_SET_NO = 999
REV_AT_EPOCH   = 55000
BSTAR          = .2779E-1
MEAN_MOTION_DOT = .4457E-4
MEAN_MOTION_DDOT = 0

CCSDS_OMM_VERS = 2.0
CREATION_DATE  = 
ORIGINATOR     = 

OBJECT_NAME    = UNKNOWN
OBJECT_ID      = 
CENTER_NAME    = EARTH
REF_FRAME      = TEME
TIME_SYSTEM    = UTC
MEAN_ELEMENT_THEORY = SGP/SGP4

EPOCH          = 2026-03-21T14:23:37.006368
MEAN_MOTION    = 13.34523533
ECCENTRICITY   = .0766018
INCLINATION    = 65.8290
RA_OF_ASC_NODE = 191.6912
ARG_OF_PERICENTER = 90.2836
MEAN_ANOMALY   = 278.5926

EPHEMERIS_TYPE = 0
CLASSIFICATION_TYPE = U
NORAD_CAT_ID   = 81615
ELEMENT_SET_NO = 999
REV_AT_EPOCH   = 59605
BSTAR          = .73199E-3
MEAN_MOTION_DOT = .1974E-4
MEAN_MOTION_DDOT = 0

CCSDS_OMM_VERS = 2.0
CREATION_DATE  = 
ORIGINATOR     = 

OBJECT_NAME    = UNKNOWN
OBJECT_ID      = 
CENTER_NAME    = EARTH
REF_FRAME      = TEME
TIME_SYSTEM    = UTC
MEAN_ELEMENT_THEORY = SGP/SGP4

EPOCH          = 2026-03-20T07:42:10.370304
MEAN_MOTION    = 12.57614430
ECCENTRICITY   = .0031285
INCLINATION    = 101.2695
RA_OF_ASC_NODE = 254.5527
ARG_OF_PERICENTER = 49.0477
MEAN_ANOMALY   = 311.3300

EPHEMERIS_TYPE = 0
CLASSIFICATION_TYPE = U
NORAD_CAT_ID   = 81617
ELEMENT_SET_NO = 999
REV_AT_EPOCH   = 56537
BSTAR          = .2106E-2
MEAN_MOTION_DOT = .312E-5
MEAN_MOTION_DDOT = 0

CCSDS_OMM_VERS = 2.0
CREATION_DATE  = 
ORIGINATOR     = 

OBJECT_NAME    = UNKNOWN
OBJECT_ID      = 
CENTER_NAME    = EARTH
REF_FRAME      = TEME
TIME_SYSTEM    = UTC
MEAN_ELEMENT_THEORY = SGP/SGP4

EPOCH          = 2026-02-26T01:53:09.671424
MEAN_MOTION    = 14.72174479
ECCENTRICITY   = .0063505
INCLINATION    = 66.9770
RA_OF_ASC_NODE = 318.5702
ARG_OF_PERICENTER = 176.9023
MEAN_ANOMALY   = 183.2505

EPHEMERIS_TYPE = 0
CLASSIFICATION_TYPE = U
NORAD_CAT_ID   = 81624
ELEMENT_SET_NO = 999
REV_AT_EPOCH   = 65079
BSTAR          = .72056E-3
MEAN_MOTION_DOT = .4588E-4
MEAN_MOTION_DDOT = 0

CCSDS_OMM_VERS = 2.0
CREATION_DATE  = 
ORIGINATOR     = 

OBJECT_NAME    = UNKNOWN
OBJECT_ID      = 
CENTER_NAME    = EARTH
REF_FRAME      = TEME
TIME_SYSTEM    = UTC
MEAN_ELEMENT_THEORY = SGP/SGP4

EPOCH          = 2026-03-21T13:45:11.700576
MEAN_MOTION    = 12.57313878
ECCENTRICITY   = .0979997
INCLINATION    = 65.8238
RA_OF_ASC_NODE = 289.8805
ARG_OF_PERICENTER = 37.3018
MEAN_ANOMALY   = 329.2097

EPHEMERIS_TYPE = 0
CLASSIFICATION_TYPE = U
NORAD_CAT_ID   = 81640
ELEMENT_SET_NO = 999
REV_AT_EPOCH   = 52250
BSTAR          = .26371E-3
MEAN_MOTION_DOT = .231E-5
MEAN_MOTION_DDOT = 0

CCSDS_OMM_VERS = 2.0
CREATION_DATE  = 
ORIGINATOR     = 

OBJECT_NAME    = UNKNOWN
OBJECT_ID      = 
CENTER_NAME    = EARTH
REF_FRAME      = TEME
TIME_SYSTEM    = UTC
MEAN_ELEMENT_THEORY = SGP/SGP4

EPOCH          = 2026-03-19T16:58:06.085632
MEAN_MOTION    = 13.44514908
ECCENTRICITY   = .0363855
INCLINATION    = 102.1441
RA_OF_ASC_NODE = 352.3088
ARG_OF_PERICENTER = 142.7406
MEAN_ANOMALY   = 251.3047

EPHEMERIS_TYPE = 0
CLASSIFICATION_TYPE = U
NORAD_CAT_ID   = 81652
ELEMENT_SET_NO = 999
REV_AT_EPOCH   = 59168
BSTAR          = .73687E-3
MEAN_MOTION_DOT = .581E-5
MEAN_MOTION_DDOT = 0

CCSDS_OMM_VERS = 2.0
CREATION_DATE  = 
ORIGINATOR     = 

OBJECT_NAME    = UNKNOWN
OBJECT_ID      = 
CENTER_NAME    = EARTH
REF_FRAME      = TEME
TIME_SYSTEM    = UTC
MEAN_ELEMENT_THEORY = SGP/SGP4

EPOCH          = 2026-03-21T02:10:06.974400
MEAN_MOTION    = 14.48608738
ECCENTRICITY   = .001416
INCLINATION    = 74.0414
RA_OF_ASC_NODE = 212.4181
ARG_OF_PERICENTER = 121.8027
MEAN_ANOMALY   = 238.4514

EPHEMERIS_TYPE = 0
CLASSIFICATION_TYPE = U
NORAD_CAT_ID   = 81667
ELEMENT_SET_NO = 999
REV_AT_EPOCH   = 47088
BSTAR          = .60066E-3
MEAN_MOTION_DOT = .2236E-4
MEAN_MOTION_DDOT = 0

CCSDS_OMM_VERS = 2.0
CREATION_DATE  = 
ORIGINATOR     = 

OBJECT_NAME    = UNKNOWN
OBJECT_ID      = 
CENTER_NAME    = EARTH
REF_FRAME      = TEME
TIME_SYSTEM    = UTC
MEAN_ELEMENT_THEORY = SGP/SGP4

EPOCH          = 2026-03-21T12:41:13.170624
MEAN_MOTION    = 14.10182679
ECCENTRICITY   = .0022419
INCLINATION    = 66.8210
RA_OF_ASC_NODE = 115.4607
ARG_OF_PERICENTER = 167.4468
MEAN_ANOMALY   = 349.0545

EPHEMERIS_TYPE = 0
CLASSIFICATION_TYPE = U
NORAD_CAT_ID   = 81674
ELEMENT_SET_NO = 999
REV_AT_EPOCH   = 62764
BSTAR          = .57316E-3
MEAN_MOTION_DOT = .938E-5
MEAN_MOTION_DDOT = 0

CCSDS_OMM_VERS = 2.0
CREATION_DATE  = 
ORIGINATOR     = 

OBJECT_NAME    = UNKNOWN
OBJECT_ID      = 
CENTER_NAME    = EARTH
REF_FRAME      = TEME
TIME_SYSTEM    = UTC
MEAN_ELEMENT_THEORY = SGP/SGP4

EPOCH          = 2026-03-21T00:54:14.533344
MEAN_MOTION    = 14.58157548
ECCENTRICITY   = .0022262
INCLINATION    = 81.2181
RA_OF_ASC_NODE = 191.6482
ARG_OF_PERICENTER = 357.4868
MEAN_ANOMALY   = 2.6214

EPHEMERIS_TYPE = 0
CLASSIFICATION_TYPE = U
NORAD_CAT_ID   = 81683
ELEMENT_SET_NO = 999
REV_AT_EPOCH   = 65018
BSTAR          = .74283E-3
MEAN_MOTION_DOT = .3449E-4
MEAN_MOTION_DDOT = 0

CCSDS_OMM_VERS = 2.0
CREATION_DATE  = 
ORIGINATOR     = 

OBJECT_NAME    = UNKNOWN
OBJECT_ID      = 
CENTER_NAME    = EARTH
REF_FRAME      = TEME
TIME_SYSTEM    = UTC
MEAN_ELEMENT_THEORY = SGP/SGP4

EPOCH          = 2026-03-18T14:01:45.422400
MEAN_MOTION    = 12.26090685
ECCENTRICITY   = .0378927
INCLINATION    = 101.1032
RA_OF_ASC_NODE = 133.5446
ARG_OF_PERICENTER = 260.3042
MEAN_ANOMALY   = 95.5030

EPHEMERIS_TYPE = 0
CLASSIFICATION_TYPE = U
NORAD_CAT_ID   = 81693
ELEMENT_SET_NO = 999
REV_AT_EPOCH   = 97951
BSTAR          = .10849E-1
MEAN_MOTION_DOT = .1492E-4
MEAN_MOTION_DDOT = 0

CCSDS_OMM_VERS = 2.0
CREATION_DATE  = 
ORIGINATOR     = 

OBJECT_NAME    = UNKNOWN
OBJECT_ID      = 
CENTER_NAME    = EARTH
REF_FRAME      = TEME
TIME_SYSTEM    = UTC
MEAN_ELEMENT_THEORY = SGP/SGP4

EPOCH          = 2026-03-21T12:32:35.602656
MEAN_MOTION    = 14.40922574
ECCENTRICITY   = .0003092
INCLINATION    = 71.0000
RA_OF_ASC_NODE = 171.2022
ARG_OF_PERICENTER = 37.9351
MEAN_ANOMALY   = 322.2002

EPHEMERIS_TYPE = 0
CLASSIFICATION_TYPE = U
NORAD_CAT_ID   = 81745
ELEMENT_SET_NO = 999
REV_AT_EPOCH   = 64397
BSTAR          = .83413E-3
MEAN_MOTION_DOT = .2629E-4
MEAN_MOTION_DDOT = 0

CCSDS_OMM_VERS = 2.0
CREATION_DATE  = 
ORIGINATOR     = 

OBJECT_NAME    = UNKNOWN
OBJECT_ID      = 
CENTER_NAME    = EARTH
REF_FRAME      = TEME
TIME_SYSTEM    = UTC
MEAN_ELEMENT_THEORY = SGP/SGP4

EPOCH          = 2026-03-19T15:03:11.954016
MEAN_MOTION    = 14.42347016
ECCENTRICITY   = .0012941
INCLINATION    = 82.9195
RA_OF_ASC_NODE = 143.9039
ARG_OF_PERICENTER = 299.9771
MEAN_ANOMALY   = 60.0138

EPHEMERIS_TYPE = 0
CLASSIFICATION_TYPE = U
NORAD_CAT_ID   = 81775
ELEMENT_SET_NO = 999
REV_AT_EPOCH   = 63923
BSTAR          = .12237E-2
MEAN_MOTION_DOT = .4063E-4
MEAN_MOTION_DDOT = 0

